CCSDS_OMM_VERS = 2.0
CREATION_DATE  = 
ORIGINATOR     = 

OBJECT_NAME    = ERS-1
OBJECT_ID      = 1991-050A
CENTER_NAME    = EARTH
REF_FRAME      = TEME
TIME_SYSTEM    = UTC
MEAN_ELEMENT_THEORY = SGP/SGP4

EPOCH          = 2026-03-18T07:36:01.272960
MEAN_MOTION    = 14.39455853
ECCENTRICITY   = .00321001
INCLINATION    = 98.7875
RA_OF_ASC_NODE = 95.7680
ARG_OF_PERICENTER = 174.7549
MEAN_ANOMALY   = 185.3980

EPHEMERIS_TYPE = 0
CLASSIFICATION_TYPE = U
NORAD_CAT_ID   = 21574
ELEMENT_SET_NO = 999
REV_AT_EPOCH   = 81697
BSTAR          = .10220473E-3
MEAN_MOTION_DOT = .274E-5
MEAN_MOTION_DDOT = 0

CCSDS_OMM_VERS = 2.0
CREATION_DATE  = 
ORIGINATOR     = 

OBJECT_NAME    = ARIANE 40 R/B
OBJECT_ID      = 1991-050F
CENTER_NAME    = EARTH
REF_FRAME      = TEME
TIME_SYSTEM    = UTC
MEAN_ELEMENT_THEORY = SGP/SGP4

EPOCH          = 2026-03-18T03:20:15.839808
MEAN_MOTION    = 14.42899860
ECCENTRICITY   = .00040909
INCLINATION    = 98.1994
RA_OF_ASC_NODE = 129.0578
ARG_OF_PERICENTER = 62.7702
MEAN_ANOMALY   = 297.3905

EPHEMERIS_TYPE = 0
CLASSIFICATION_TYPE = U
NORAD_CAT_ID   = 21610
ELEMENT_SET_NO = 999
REV_AT_EPOCH   = 82021
BSTAR          = .98487453E-4
MEAN_MOTION_DOT = .287E-5
MEAN_MOTION_DDOT = 0

CCSDS_OMM_VERS = 2.0
CREATION_DATE  = 
ORIGINATOR     = 

OBJECT_NAME    = INTERCOSMOS 25
OBJECT_ID      = 1991-086A
CENTER_NAME    = EARTH
REF_FRAME      = TEME
TIME_SYSTEM    = UTC
MEAN_ELEMENT_THEORY = SGP/SGP4

EPOCH          = 2026-03-18T01:52:10.333632
MEAN_MOTION    = 12.12029771
ECCENTRICITY   = .14868269
INCLINATION    = 82.6039
RA_OF_ASC_NODE = 304.9385
ARG_OF_PERICENTER = 98.8616
MEAN_ANOMALY   = 278.3154

EPHEMERIS_TYPE = 0
CLASSIFICATION_TYPE = U
NORAD_CAT_ID   = 21819
ELEMENT_SET_NO = 999
REV_AT_EPOCH   = 49770
BSTAR          = .29697082E-3
MEAN_MOTION_DOT = .1553E-4
MEAN_MOTION_DDOT = 0

CCSDS_OMM_VERS = 2.0
CREATION_DATE  = 
ORIGINATOR     = 

OBJECT_NAME    = SL-8 R/B
OBJECT_ID      = 1992-008B
CENTER_NAME    = EARTH
REF_FRAME      = TEME
TIME_SYSTEM    = UTC
MEAN_ELEMENT_THEORY = SGP/SGP4

EPOCH          = 2026-03-18T00:31:41.293344
MEAN_MOTION    = 13.75969659
ECCENTRICITY   = .00358304
INCLINATION    = 82.9222
RA_OF_ASC_NODE = 261.5781
ARG_OF_PERICENTER = 110.7617
MEAN_ANOMALY   = 2.1386

EPHEMERIS_TYPE = 0
CLASSIFICATION_TYPE = U
NORAD_CAT_ID   = 21876
ELEMENT_SET_NO = 999
REV_AT_EPOCH   = 71056
BSTAR          = -.12758593E-4
MEAN_MOTION_DOT = .3E-7
MEAN_MOTION_DDOT = 0

CCSDS_OMM_VERS = 2.0
CREATION_DATE  = 
ORIGINATOR     = 

OBJECT_NAME    = SL-8 R/B
OBJECT_ID      = 1992-020B
CENTER_NAME    = EARTH
REF_FRAME      = TEME
TIME_SYSTEM    = UTC
MEAN_ELEMENT_THEORY = SGP/SGP4

EPOCH          = 2026-03-17T22:25:31.198368
MEAN_MOTION    = 13.75550102
ECCENTRICITY   = .00275304
INCLINATION    = 82.9323
RA_OF_ASC_NODE = 147.6408
ARG_OF_PERICENTER = 274.6975
MEAN_ANOMALY   = 258.4512

EPHEMERIS_TYPE = 0
CLASSIFICATION_TYPE = U
NORAD_CAT_ID   = 21938
ELEMENT_SET_NO = 999
REV_AT_EPOCH   = 70226
BSTAR          = .42891512E-4
MEAN_MOTION_DOT = .56E-6
MEAN_MOTION_DDOT = 0

CCSDS_OMM_VERS = 2.0
CREATION_DATE  = 
ORIGINATOR     = 

OBJECT_NAME    = USA 81
OBJECT_ID      = 1992-023A
CENTER_NAME    = EARTH
REF_FRAME      = TEME
TIME_SYSTEM    = UTC
MEAN_ELEMENT_THEORY = SGP/SGP4

EPOCH          = 2026-03-18T02:40:40.634688
MEAN_MOTION    = 14.32370760
ECCENTRICITY   = .00022285
INCLINATION    = 85.0068
RA_OF_ASC_NODE = 126.5820
ARG_OF_PERICENTER = 71.3316
MEAN_ANOMALY   = 288.8118

EPHEMERIS_TYPE = 0
CLASSIFICATION_TYPE = U
NORAD_CAT_ID   = 21949
ELEMENT_SET_NO = 999
REV_AT_EPOCH   = 9599
BSTAR          = .59840536E-4
MEAN_MOTION_DOT = .182E-5
MEAN_MOTION_DDOT = 0

CCSDS_OMM_VERS = 2.0
CREATION_DATE  = 
ORIGINATOR     = 

OBJECT_NAME    = COSMOS 2219
OBJECT_ID      = 1992-076A
CENTER_NAME    = EARTH
REF_FRAME      = TEME
TIME_SYSTEM    = UTC
MEAN_ELEMENT_THEORY = SGP/SGP4

EPOCH          = 2026-03-18T03:37:29.439552
MEAN_MOTION    = 14.14093504
ECCENTRICITY   = .00184873
INCLINATION    = 71.0641
RA_OF_ASC_NODE = 0.3816
ARG_OF_PERICENTER = 195.2338
MEAN_ANOMALY   = 164.8231

EPHEMERIS_TYPE = 0
CLASSIFICATION_TYPE = U
NORAD_CAT_ID   = 22219
ELEMENT_SET_NO = 999
REV_AT_EPOCH   = 71957
BSTAR          = -.28667251E-4
MEAN_MOTION_DOT = -.102E-5
MEAN_MOTION_DDOT = 0

CCSDS_OMM_VERS = 2.0
CREATION_DATE  = 
ORIGINATOR     = 

OBJECT_NAME    = SL-16 R/B
OBJECT_ID      = 1992-076B
CENTER_NAME    = EARTH
REF_FRAME      = TEME
TIME_SYSTEM    = UTC
MEAN_ELEMENT_THEORY = SGP/SGP4

EPOCH          = 2026-03-18T07:24:47.525760
MEAN_MOTION    = 14.16860107
ECCENTRICITY   = .0010594
INCLINATION    = 71.0006
RA_OF_ASC_NODE = 170.2191
ARG_OF_PERICENTER = 80.4540
MEAN_ANOMALY   = 336.2949

EPHEMERIS_TYPE = 0
CLASSIFICATION_TYPE = U
NORAD_CAT_ID   = 22220
ELEMENT_SET_NO = 999
REV_AT_EPOCH   = 72305
BSTAR          = .13027534E-3
MEAN_MOTION_DOT = .214E-5
MEAN_MOTION_DDOT = 0

CCSDS_OMM_VERS = 2.0
CREATION_DATE  = 
ORIGINATOR     = 

OBJECT_NAME    = COSMOS 2221
OBJECT_ID      = 1992-080A
CENTER_NAME    = EARTH
REF_FRAME      = TEME
TIME_SYSTEM    = UTC
MEAN_ELEMENT_THEORY = SGP/SGP4

EPOCH          = 2026-03-18T06:20:53.000448
MEAN_MOTION    = 14.96235250
ECCENTRICITY   = .00147781
INCLINATION    = 82.5002
RA_OF_ASC_NODE = 270.8651
ARG_OF_PERICENTER = 158.7326
MEAN_ANOMALY   = 201.4514

EPHEMERIS_TYPE = 0
CLASSIFICATION_TYPE = U
NORAD_CAT_ID   = 22236
ELEMENT_SET_NO = 999
REV_AT_EPOCH   = 78207
BSTAR          = .16396833E-3
MEAN_MOTION_DOT = .1879E-4
MEAN_MOTION_DDOT = 0

CCSDS_OMM_VERS = 2.0
CREATION_DATE  = 
ORIGINATOR     = 

OBJECT_NAME    = SL-16 R/B
OBJECT_ID      = 1992-093B
CENTER_NAME    = EARTH
REF_FRAME      = TEME
TIME_SYSTEM    = UTC
MEAN_ELEMENT_THEORY = SGP/SGP4

EPOCH          = 2026-03-18T03:34:55.568928
MEAN_MOTION    = 14.15447733
ECCENTRICITY   = .00062865
INCLINATION    = 71.0239
RA_OF_ASC_NODE = 346.5088
ARG_OF_PERICENTER = 285.1214
MEAN_ANOMALY   = 74.9214

EPHEMERIS_TYPE = 0
CLASSIFICATION_TYPE = U
NORAD_CAT_ID   = 22285
ELEMENT_SET_NO = 999
REV_AT_EPOCH   = 71435
BSTAR          = .10487435E-3
MEAN_MOTION_DOT = .157E-5
MEAN_MOTION_DDOT = 0

CCSDS_OMM_VERS = 2.0
CREATION_DATE  = 
ORIGINATOR     = 

OBJECT_NAME    = COSMOS 2228
OBJECT_ID      = 1992-094A
CENTER_NAME    = EARTH
REF_FRAME      = TEME
TIME_SYSTEM    = UTC
MEAN_ELEMENT_THEORY = SGP/SGP4

EPOCH          = 2026-03-18T06:36:13.150080
MEAN_MOTION    = 14.97234590
ECCENTRICITY   = .00166093
INCLINATION    = 82.5168
RA_OF_ASC_NODE = 229.0893
ARG_OF_PERICENTER = 273.4478
MEAN_ANOMALY   = 86.4845

EPHEMERIS_TYPE = 0
CLASSIFICATION_TYPE = U
NORAD_CAT_ID   = 22286
ELEMENT_SET_NO = 999
REV_AT_EPOCH   = 77734
BSTAR          = .19932784E-3
MEAN_MOTION_DOT = .2338E-4
MEAN_MOTION_DDOT = 0

CCSDS_OMM_VERS = 2.0
CREATION_DATE  = 
ORIGINATOR     = 

OBJECT_NAME    = SL-16 R/B
OBJECT_ID      = 1993-016B
CENTER_NAME    = EARTH
REF_FRAME      = TEME
TIME_SYSTEM    = UTC
MEAN_ELEMENT_THEORY = SGP/SGP4

EPOCH          = 2026-03-18T01:10:45.699456
MEAN_MOTION    = 14.15308161
ECCENTRICITY   = .0012272
INCLINATION    = 71.0083
RA_OF_ASC_NODE = 197.6246
ARG_OF_PERICENTER = 303.2524
MEAN_ANOMALY   = 56.7422

EPHEMERIS_TYPE = 0
CLASSIFICATION_TYPE = U
NORAD_CAT_ID   = 22566
ELEMENT_SET_NO = 999
REV_AT_EPOCH   = 70335
BSTAR          = -.10359763E-3
MEAN_MOTION_DOT = -.25E-5
MEAN_MOTION_DDOT = 0

